OBJECT_NAME,OBJECT_ID,EPOCH,MEAN_MOTION,ECCENTRICITY,INCLINATION,RA_OF_ASC_NODE,ARG_OF_PERICENTER,MEAN_ANOMALY,EPHEMERIS_TYPE,CLASSIFICATION_TYPE,NORAD_CAT_ID,ELEMENT_SET_NO,REV_AT_EPOCH,BSTAR,MEAN_MOTION_DOT,MEAN_MOTION_DDOT
STARLINK-6379,2023-099R,2024-09-23T01:03:54.750816,15.02537360,.0001279,43.0047,263.1548,267.4406,92.6290,0,U,57343,999,6599,-.16832E-4,-.431E-5,0
STARLINK-6380,2023-099S,2024-09-23T07:14:02.014944,15.02543629,.0001285,43.0033,261.6407,277.5361,82.5335,0,U,57344,999,6603,.29461E-3,.3779E-4,0
STARLINK-6359,2023-099U,2024-09-23T06:50:03.560352,15.02540304,.0001065,43.0035,261.5166,274.7217,85.3504,0,U,57346,999,6603,.18815E-3,.2339E-4,0
STARLINK-6372,2023-099W,2024-09-23T08:17:47.886432,15.02537131,.0001244,43.0039,261.1156,267.5851,92.4849,0,U,57348,999,6604,.75933E-4,.822E-5,0
STARLINK-6376,2023-099X,2024-09-23T08:20:59.614944,15.02538062,.0001194,43.0033,261.1330,269.4116,90.6590,0,U,57349,999,6676,.10807E-3,.1257E-4,0
STARLINK-6362,2023-099Y,2024-09-23T10:05:15.069120,15.02536689,.0000856,43.0027,248.6494,265.5685,94.5060,0,U,57350,999,6619,.30152E-4,.204E-5,0
STARLINK-6331,2023-099Z,2024-09-23T08:16:11.907264,15.02535868,.0001253,43.0040,261.1083,265.2374,94.8326,0,U,57351,999,6604,.5832E-4,.584E-5,0
STARLINK-6324,2023-099AB,2024-09-23T08:13:00.265152,15.02537292,.0001224,43.0037,261.0911,267.8532,92.2171,0,U,57353,999,6604,.5704E-4,.567E-5,0
STARLINK-6293,2023-099AC,2024-09-23T08:07:08.507424,15.02545484,.0001028,43.0010,248.8923,268.5280,91.5444,0,U,57354,999,6618,.23272E-3,.2942E-4,0
STARLINK-6276,2023-099AD,2024-09-23T05:13:16.884192,15.02533558,.0001395,43.0043,249.7064,260.2643,99.8042,0,U,57355,999,6616,.19131E-3,.2381E-4,0
STARLINK-6355,2023-099AE,2024-09-23T08:05:32.345088,15.02544288,.0001204,43.0029,248.8832,272.9439,87.1266,0,U,57356,999,6618,.20859E-3,.2616E-4,0
STARLINK-6299,2023-099AG,2024-09-23T07:57:33.207840,15.02537261,.0001214,43.0031,248.8412,271.6706,88.3997,0,U,57358,999,6692,.10264E-3,.1183E-4,0
STARLINK-6347,2023-099AH,2024-09-23T08:21:31.707360,15.02539244,.0001245,43.0042,248.9646,266.3815,93.6885,0,U,57359,999,6618,.53477E-4,.519E-5,0
STARLINK-6348,2023-099AJ,2024-09-23T07:47:57.945408,15.02533413,.000128,43.0031,248.7913,271.9690,88.1006,0,U,57360,999,6618,.10309E-3,.1189E-4,0
STARLINK-6340,2023-099AK,2024-09-23T08:00:44.964000,15.02550512,.0001255,43.0013,248.8567,273.5366,86.5333,0,U,57361,999,6618,.10656E-3,.1237E-4,0
STARLINK-6338,2023-099AN,2024-09-23T09:17:17.759040,15.02541007,.0001159,43.0027,248.3943,278.6632,81.4079,0,U,57364,999,6619,.16967E-3,.2089E-4,0
STARLINK-5007,2023-099AP,2024-09-23T07:27:11.104416,15.02538286,.0001353,43.0022,248.6775,266.5252,93.5436,0,U,57365,999,6618,.93971E-4,.1066E-4,0
STARLINK-6174,2023-099AQ,2024-09-23T07:31:59.014272,15.02534120,.0001334,43.0035,248.7032,272.4572,87.6118,0,U,57366,999,6618,.12784E-3,.1524E-4,0
STARLINK-6215,2023-099AR,2024-09-23T05:47:01.894560,15.02535016,.0001212,43.0047,235.9860,268.5667,91.5036,0,U,57367,999,6707,.96086E-4,.1095E-4,0
STARLINK-6218,2023-099AS,2024-09-23T07:23:59.482176,15.02536938,.0001238,43.0026,248.6631,264.4325,95.6376,0,U,57368,999,6618,.72499E-4,.776E-5,0
STARLINK-6168,2023-099AT,2024-09-23T07:36:46.674432,15.02538675,.0001295,43.0031,248.7317,269.2558,90.8136,0,U,57369,999,6618,.69132E-4,.73E-5,0
STARLINK-5353,2023-099AU,2024-09-23T05:38:40.557696,15.02536613,.0001109,43.0032,248.9711,267.2667,92.8048,0,U,57370,999,6617,.13725E-3,.1651E-4,0
