STARLINK-6379           
1 57343U 23099R   24267.04438369 -.00000431  00000+0 -16832-4 0  9996
2 57343  43.0047 263.1548 0001279 267.4406  92.6290 15.02537360 65998
STARLINK-6380           
1 57344U 23099S   24267.30141221  .00003779  00000+0  29461-3 0  9991
2 57344  43.0033 261.6407 0001285 277.5361  82.5335 15.02543629 66039
STARLINK-6359           
1 57346U 23099U   24267.28476343  .00002339  00000+0  18815-3 0  9998
2 57346  43.0035 261.5166 0001065 274.7217  85.3504 15.02540304 66035
STARLINK-6372           
1 57348U 23099W   24267.34569313  .00000822  00000+0  75933-4 0  9997
2 57348  43.0039 261.1156 0001244 267.5851  92.4849 15.02537131 66045
STARLINK-6376           
1 57349U 23099X   24267.34791221  .00001257  00000+0  10807-3 0  9994
2 57349  43.0033 261.1330 0001194 269.4116  90.6590 15.02538062 66769
STARLINK-6362           
1 57350U 23099Y   24267.42031330  .00000204  00000+0  30152-4 0  9990
2 57350  43.0027 248.6494 0000856 265.5685  94.5060 15.02536689 66192
STARLINK-6331           
1 57351U 23099Z   24267.34458226  .00000584  00000+0  58320-4 0  9997
2 57351  43.0040 261.1083 0001253 265.2374  94.8326 15.02535868 66046
STARLINK-6324           
1 57353U 23099AB  24267.34236418  .00000567  00000+0  57040-4 0  9995
2 57353  43.0037 261.0911 0001224 267.8532  92.2171 15.02537292 66048
STARLINK-6293           
1 57354U 23099AC  24267.33829291  .00002942  00000+0  23272-3 0  9990
2 57354  43.0010 248.8923 0001028 268.5280  91.5444 15.02545484 66188
STARLINK-6276           
1 57355U 23099AD  24267.21755653  .00002381  00000+0  19131-3 0  9994
2 57355  43.0043 249.7064 0001395 260.2643  99.8042 15.02533558 66162
STARLINK-6355           
1 57356U 23099AE  24267.33717992  .00002616  00000+0  20859-3 0  9992
2 57356  43.0029 248.8832 0001204 272.9439  87.1266 15.02544288 66184
STARLINK-6299           
1 57358U 23099AG  24267.33163435  .00001183  00000+0  10264-3 0  9998
2 57358  43.0031 248.8412 0001214 271.6706  88.3997 15.02537261 66926
STARLINK-6347           
1 57359U 23099AH  24267.34828365  .00000519  00000+0  53477-4 0  9996
2 57359  43.0042 248.9646 0001245 266.3815  93.6885 15.02539244 66181
STARLINK-6348           
1 57360U 23099AJ  24267.32497622  .00001189  00000+0  10309-3 0  9994
2 57360  43.0031 248.7913 0001280 271.9690  88.1006 15.02533413 66184
STARLINK-6340           
1 57361U 23099AK  24267.33385375  .00001237  00000+0  10656-3 0  9996
2 57361  43.0013 248.8567 0001255 273.5366  86.5333 15.02550512 66185
STARLINK-6338           
1 57364U 23099AN  24267.38701110  .00002089  00000+0  16967-3 0  9990
2 57364  43.0027 248.3943 0001159 278.6632  81.4079 15.02541007 66192
STARLINK-5007           
1 57365U 23099AP  24267.31054519  .00001066  00000+0  93971-4 0  9993
2 57365  43.0022 248.6775 0001353 266.5252  93.5436 15.02538286 66189
STARLINK-6174           
1 57366U 23099AQ  24267.31387748  .00001524  00000+0  12784-3 0  9998
2 57366  43.0035 248.7032 0001334 272.4572  87.6118 15.02534120 66185
STARLINK-6215           
1 57367U 23099AR  24267.24099415  .00001095  00000+0  96086-4 0  9993
2 57367  43.0047 235.9860 0001212 268.5667  91.5036 15.02535016 67079
STARLINK-6218           
1 57368U 23099AS  24267.30832734  .00000776  00000+0  72499-4 0  9997
2 57368  43.0026 248.6631 0001238 264.4325  95.6376 15.02536938 66185
STARLINK-6168           
1 57369U 23099AT  24267.31720688  .00000730  00000+0  69132-4 0  9993
2 57369  43.0031 248.7317 0001295 269.2558  90.8136 15.02538675 66189
STARLINK-5353           
1 57370U 23099AU  24267.23519164  .00001651  00000+0  13725-3 0  9990
2 57370  43.0032 248.9711 0001109 267.2667  92.8048 15.02536613 66178
